[
    {
        "CCSDS_OMM_VERS": "3.0",
        "COMMENT": "GENERATED VIA SPACE-TRACK.ORG API",
        "CREATION_DATE": "2025-05-04T02:26:54",
        "ORIGINATOR": "18 SPCS",
        "OBJECT_NAME": "COSMOS 2557 (GLONASS)",
        "OBJECT_ID": "2022-075A",
        "CENTER_NAME": "EARTH",
        "REF_FRAME": "TEME",
        "TIME_SYSTEM": "UTC",
        "MEAN_ELEMENT_THEORY": "SGP4",
        "EPOCH": "2025-05-03T10:39:58.282848",
        "MEAN_MOTION": "2.13102033",
        "ECCENTRICITY": "0.00106640",
        "INCLINATION": "64.5286",
        "RA_OF_ASC_NODE": "328.8875",
        "ARG_OF_PERICENTER": "283.4099",
        "MEAN_ANOMALY": "76.4999",
        "EPHEMERIS_TYPE": "0",
        "CLASSIFICATION_TYPE": "U",
        "NORAD_CAT_ID": "52984",
        "ELEMENT_SET_NO": "999",
        "REV_AT_EPOCH": "2198",
        "BSTAR": "0.00000000000000",
        "MEAN_MOTION_DOT": "-0.00000052",
        "MEAN_MOTION_DDOT": "0.0000000000000",
        "SEMIMAJOR_AXIS": "25508.022",
        "PERIOD": "675.733",
        "APOAPSIS": "19157.089",
        "PERIAPSIS": "19102.685",
        "OBJECT_TYPE": "PAYLOAD",
        "RCS_SIZE": "LARGE",
        "COUNTRY_CODE": "CIS",
        "LAUNCH_DATE": "2022-07-07",
        "SITE": "PKMTR",
        "DECAY_DATE": null,
        "FILE": "4718307",
        "GP_ID": "286803870",
        "TLE_LINE0": "0 COSMOS 2557 (GLONASS)",
        "TLE_LINE1": "1 52984U 22075A   25123.44442457 -.00000052  00000-0  00000-0 0  9999",
        "TLE_LINE2": "2 52984  64.5286 328.8875 0010664 283.4099  76.4999  2.13102033 21983"
    }
]